#aV2011  1  3  0  0   .00000000      96 DD+AD WGS84 FIT  NGA
## 1617  86400.00000000   900.00000000 55564  .0000000000000
+   32     1  2  3  4  5  6  7  8  9 10 11 12 13 14 15 16 17
+         18 19 20 21 22 23 24 25 26 27 28 29 30 31 32  0  0
+          0  0  0  0  0  0  0  0  0  0  0  0  0  0  0  0  0
+          0  0  0  0  0  0  0  0  0  0  0  0  0  0  0  0  0
+          0  0  0  0  0  0  0  0  0  0  0  0  0  0  0  0  0
++         0  0  0  0  0  0  0  0  0  0  0  0  0  0  0  0  0
++         0  0  0  0  0  0  0  0  0  0  0  0  0  0  0  0  0
++         0  0  0  0  0  0  0  0  0  0  0  0  0  0  0  0  0
++         0  0  0  0  0  0  0  0  0  0  0  0  0  0  0  0  0
++         0  0  0  0  0  0  0  0  0  0  0  0  0  0  0  0  0
%c cc cc ccc ccc cccc cccc cccc cccc ccccc ccccc ccccc ccccc
%c cc cc ccc ccc cccc cccc cccc cccc ccccc ccccc ccccc ccccc
%f  0.0000000  0.000000000  0.00000000000  0.000000000000000
%f  0.0000000  0.000000000  0.00000000000  0.000000000000000
%i    0    0    0    0      0      0      0      0         0
%i    0    0    0    0      0      0      0      0         0
/*      NGA, ST. LOUIS,MO.                                  
/*   EPHEMERIS COMPUTED FROM  3 DAYS OF DATA                
/* CCCCCCCCCCCCCCCCCCCCCCCCCCCCCCCCCCCCCCCCCCCCCCCCCCCCCCCCC
/* CCCCCCCCCCCCCCCCCCCCCCCCCCCCCCCCCCCCCCCCCCCCCCCCCCCCCCCCC
*  2011  1  3  4 30   .00000000                                                 
P  1   6620.113494 -22470.896450  12277.191005   -196.822260                    
V  1   3577.927946  15563.043310  26440.964407      -.032778                    
P  2   1653.643789  17120.740470  20355.802383    312.463754                    
V  2 -23853.938071  -9858.200866   9759.217062       .022254                    
P  3   3024.096500 -20103.915180 -17328.750798    657.351310                    
V  3  17560.689510 -12561.830967  18386.774372       .051356                    
P  4 -10933.282980  11825.428872  20957.294000    261.302085                    
V  4 -24288.204465 -12091.550699  -5437.714150       .098670                    
P  5   2031.066832  26423.414371    251.336736    -92.869526                    
V  5  -3085.037338    -83.802397  31712.976432      -.059570                    
P  6   8723.137972 -20247.897846 -14512.320440    377.789868                    
V  6  16648.622897  -9281.252130  22896.153673      -.065117                    
P  7 -24368.186905  -4231.284439  -9944.668684      1.237350                    
V  7 -10436.342809  -7260.735593  28448.593131       .005443                    
P  8 -18883.723615   3107.320936 -18638.170022      7.123036                    
V  8 -19982.851954 -12241.062546  17658.392712       .001071                    
P  9  19852.394596  15467.569740  -9049.253465     52.891858                    
V  9 -10516.212301  -2690.623192 -29431.585385       .023709                    
P 10  -8407.147222  20949.563761  13487.793434    -62.153974                    
V 10  -3791.546234 -17442.950627  24729.307533      -.010434                    
P 11 -22588.019307 -11640.301677  -8614.545226   -116.267107                    
V 11  11205.705064  -2133.324459 -27136.342852      -.029301                    
P 12  10946.610330  19765.785205  14120.786970    -39.168950                    
V 12   -536.717258  17859.819546 -24492.613444       .033680                    
P 13 -22691.836462   3134.986570  13347.350903    287.125989                    
V 13  14022.721008  -9905.411142  25859.149995      -.012017                    
P 14  21343.401787 -15436.099570   2944.481988    120.760386                    
V 14   4149.135421    -29.613407 -32070.099513       .030265                    
P 15  11094.167079  10910.577533 -21522.506545   -165.200599                    
V 15 -22100.095144  16166.570790  -3040.218567       .039657                    
P 16   1618.763592 -26013.551419   4275.816755   -139.597715                    
V 16   2826.569348   5291.828697  31634.401855      -.030961                    
P 17 -21787.813921  14951.779244    894.519374    180.960639                    
V 17  -2485.897907  -1974.432930 -31877.972248       .007396                    
P 18  15466.701984  -2568.112617 -21126.686539    113.823145                    
V 18   2128.963585  27564.953691  -2135.387313       .021064                    
P 19  -6449.543651 -13874.600369 -21693.183110    -97.926530                    
V 19  24038.706691 -13523.884558   1826.882168      -.035534                    
P 20 -13898.890412 -15656.252365  16241.800624     48.881162                    
V 20    -90.016439 -21072.519047 -20142.685976      -.001164                    
P 21  24405.152402   3349.160628 -10319.483313   -113.935438                    
V 21  10868.174757   8510.379495  26853.214707      -.027313                    
P 22  12104.145195 -15652.426764 -17509.524059    155.772992                    
V 22   3505.400325  22523.960104 -17637.176412      -.006110                    
P 23 -16346.141243  -5798.978675  20204.491300    334.450474                    
V 23  20687.202294 -15022.299413  12096.468487      -.022203                    
P 24 -20964.825905 -15646.318519  -5286.543521    353.309576                    
V 24   7325.658142    646.388756 -30348.920250       .032107                    
P 25  15249.599905   5289.668213  21078.846752    -61.510403                    
V 25   1845.778207  26738.100701  -8041.018692      -.021382                    
P 26  -2914.548533  17289.235509 -20387.660916    -87.098166                    
V 26 -21718.469000  11769.400839  13877.554040      -.089736                    
P 27  16187.498447  16183.442370 -13012.878612    223.156213                    
V 27 -16865.927825  -5060.370425 -25685.882763       .037426                    
P 28 -12747.069229  11899.236552 -19443.594451     12.590329                    
V 28  -2405.535382 -25770.426637 -14111.155250       .019409                    
P 29  21768.279468  -1324.106796  15211.443247    175.256754                    
V 29 -15078.307090  12044.112091  22777.991924       .027386                    
P 30   6761.877588 -21674.311866  13385.410650    310.229137                    
V 30   4538.349485  17254.843086  24877.572571       .032792                    
P 31   8321.234374 -12514.178073  22122.818457     25.488094                    
V 31  24742.777959  12026.087119  -2338.299874       .041519                    
P 32  -7802.706485 -23125.404642  11251.853106   -166.917636                    
V 32   2230.110112 -13688.879582 -26936.921187      -.081292                    
EOF
